start=new Date('2022-07-21T00:00:00.000Z').valueOf();
sats=[{"EPOCH":"2022-07-20T19:25:30.240192","OBJECT_ID":"2020-019BF","ECCENTRICITY":"0.00014230","PERIOD":"95.592","REV_AT_EPOCH":"12981","CLASSIFICATION_TYPE":"U","SITE":"AFETR","TLE_LINE1":"1 45413U 20019BF  22201.80937778 -.00000756  00000-0 -31864-4 0  9991","INCLINATION":"53.0548","COUNTRY_CODE":"US","SEMIMAJOR_AXIS":"6925.357","LAUNCH_DATE":"2020-03-18","PERIAPSIS":"546.236","OBJECT_TYPE":"PAYLOAD","MEAN_MOTION_DOT":"-0.00000756","BSTAR":"-0.00003186400000","ARG_OF_PERICENTER":"85.2153","RCS_SIZE":"LARGE","DECAY_DATE":null,"MEAN_MOTION":"15.06397297","REF_FRAME":"TEME","TIME_SYSTEM":"UTC","MEAN_MOTION_DDOT":"0.0000000000000","GP_ID":"208511399","CENTER_NAME":"EARTH","TLE_LINE2":"2 45413  53.0548 337.6967 0001423  85.2153 274.8998 15.06397297129816","APOAPSIS":"548.207","OBJECT_NAME":"STARLINK-1298","RA_OF_ASC_NODE":"337.6967","ELEMENT_SET_NO":"999","MEAN_ANOMALY":"274.8998","MEAN_ELEMENT_THEORY":"SGP4","FILE":"3518301","EPHEMERIS_TYPE":"0","NORAD_CAT_ID":"45413"},{"ECCENTRICITY":"0.00014760","PERIOD":"95.592","OBJECT_ID":"2020-019BG","EPOCH":"2022-07-20T19:04:15.938688","TLE_LINE1":"1 45414U 20019BG  22201.79462892  .00003141  00000-0  22966-3 0  9991","SITE":"AFETR","CLASSIFICATION_TYPE":"U","REV_AT_EPOCH":"12972","COUNTRY_CODE":"US","INCLINATION":"53.0551","LAUNCH_DATE":"2020-03-18","SEMIMAJOR_AXIS":"6925.330","ARG_OF_PERICENTER":"65.0714","OBJECT_TYPE":"PAYLOAD","PERIAPSIS":"546.173","BSTAR":"0.00022966000000","MEAN_MOTION_DOT":"0.00003141","RCS_SIZE":"LARGE","MEAN_MOTION_DDOT":"0.0000000000000","REF_FRAME":"TEME","TIME_SYSTEM":"UTC","DECAY_DATE":null,"MEAN_MOTION":"15.06405975","TLE_LINE2":"2 45414  53.0551 337.7672 0001476  65.0714 295.0428 15.06405975129728","CENTER_NAME":"EARTH","GP_ID":"208511909","APOAPSIS":"548.217","RA_OF_ASC_NODE":"337.7672","OBJECT_NAME":"STARLINK-1309","FILE":"3518302","MEAN_ELEMENT_THEORY":"SGP4","MEAN_ANOMALY":"295.0428","ELEMENT_SET_NO":"999","NORAD_CAT_ID":"45414","EPHEMERIS_TYPE":"0"},{"ECCENTRICITY":"0.00013230","PERIOD":"95.592","OBJECT_ID":"2020-019BH","EPOCH":"2022-07-20T19:41:25.225440","CLASSIFICATION_TYPE":"U","SITE":"AFETR","TLE_LINE1":"1 45415U 20019BH  22201.82043085  .00002560  00000-0  19070-3 0  9991","REV_AT_EPOCH":"12974","COUNTRY_CODE":"US","INCLINATION":"53.0561","SEMIMAJOR_AXIS":"6925.339","LAUNCH_DATE":"2020-03-18","ARG_OF_PERICENTER":"91.7076","OBJECT_TYPE":"PAYLOAD","PERIAPSIS":"546.288","MEAN_MOTION_DOT":"0.00002560","BSTAR":"0.00019070000000","RCS_SIZE":"LARGE","TIME_SYSTEM":"UTC","REF_FRAME":"TEME","MEAN_MOTION_DDOT":"0.0000000000000","DECAY_DATE":null,"MEAN_MOTION":"15.06403152","TLE_LINE2":"2 45415  53.0561 337.6599 0001323  91.7076 268.4065 15.06403152129743","CENTER_NAME":"EARTH","GP_ID":"208531900","APOAPSIS":"548.120","RA_OF_ASC_NODE":"337.6599","OBJECT_NAME":"STARLINK-1316","FILE":"3518363","ELEMENT_SET_NO":"999","MEAN_ANOMALY":"268.4065","MEAN_ELEMENT_THEORY":"SGP4","NORAD_CAT_ID":"45415","EPHEMERIS_TYPE":"0"},{"EPHEMERIS_TYPE":"0","NORAD_CAT_ID":"45416","MEAN_ANOMALY":"271.7862","ELEMENT_SET_NO":"999","MEAN_ELEMENT_THEORY":"SGP4","FILE":"3518320","OBJECT_NAME":"STARLINK-1318","RA_OF_ASC_NODE":"337.8107","APOAPSIS":"548.192","GP_ID":"208511918","TLE_LINE2":"2 45416  53.0543 337.8107 0001443  88.3293 271.7862 15.06406771129727","CENTER_NAME":"EARTH","MEAN_MOTION":"15.06406771","DECAY_DATE":null,"REF_FRAME":"TEME","TIME_SYSTEM":"UTC","MEAN_MOTION_DDOT":"0.0000000000000","RCS_SIZE":"LARGE","OBJECT_TYPE":"PAYLOAD","PERIAPSIS":"546.193","BSTAR":"0.00023720000000","MEAN_MOTION_DOT":"0.00003254","ARG_OF_PERICENTER":"88.3293","SEMIMAJOR_AXIS":"6925.328","LAUNCH_DATE":"2020-03-18","INCLINATION":"53.0543","COUNTRY_CODE":"US","REV_AT_EPOCH":"12972","CLASSIFICATION_TYPE":"U","SITE":"AFETR","TLE_LINE1":"1 45416U 20019BJ  22201.78726103  .00003254  00000-0  23720-3 0  9994","OBJECT_ID":"2020-019BJ","EPOCH":"2022-07-20T18:53:39.352992","PERIOD":"95.592","ECCENTRICITY":"0.00014430"},{"MEAN_ELEMENT_THEORY":"SGP4","ELEMENT_SET_NO":"999","MEAN_ANOMALY":"264.6352","FILE":"3518184","EPHEMERIS_TYPE":"0","NORAD_CAT_ID":"45417","APOAPSIS":"548.062","OBJECT_NAME":"STARLINK-1286","RA_OF_ASC_NODE":"7.7721","GP_ID":"208508640","CENTER_NAME":"EARTH","TLE_LINE2":"2 45417  53.0546   7.7721 0001200  95.4774 264.6352 15.06394241129587","DECAY_DATE":null,"MEAN_MOTION":"15.06394241","MEAN_MOTION_DDOT":"0.0000000000000","TIME_SYSTEM":"UTC","REF_FRAME":"TEME","BSTAR":"0.00008958400000","OBJECT_TYPE":"PAYLOAD","PERIAPSIS":"546.400","MEAN_MOTION_DOT":"0.00001053","ARG_OF_PERICENTER":"95.4774","RCS_SIZE":"LARGE","LAUNCH_DATE":"2020-03-18","SEMIMAJOR_AXIS":"6925.366","INCLINATION":"53.0546","COUNTRY_CODE":"US","OBJECT_ID":"2020-019BK","EPOCH":"2022-07-20T19:00:17.852256","PERIOD":"95.593","ECCENTRICITY":"0.00012000","REV_AT_EPOCH":"12958","TLE_LINE1":"1 45417U 20019BK  22201.79187329  .00001053  00000-0  89584-4 0  9993","SITE":"AFETR","CLASSIFICATION_TYPE":"U"},{"APOAPSIS":"547.298","RA_OF_ASC_NODE":"29.0936","OBJECT_NAME":"STARLINK-1299","FILE":"3518363","MEAN_ELEMENT_THEORY":"SGP4","ELEMENT_SET_NO":"999","MEAN_ANOMALY":"259.2487","NORAD_CAT_ID":"45418","EPHEMERIS_TYPE":"0","MEAN_MOTION_DDOT":"0.0000000000000","TIME_SYSTEM":"UTC","REF_FRAME":"TEME","MEAN_MOTION":"15.06869896","DECAY_DATE":null,"TLE_LINE2":"2 45418  53.0005  29.0936 0002202 100.8750 259.2487 15.06869896128975","CENTER_NAME":"EARTH","GP_ID":"208531650","LAUNCH_DATE":"2020-03-18","SEMIMAJOR_AXIS":"6923.909","ARG_OF_PERICENTER":"100.8750","OBJECT_TYPE":"PAYLOAD","PERIAPSIS":"544.249","BSTAR":"0.00126820000000","MEAN_MOTION_DOT":"0.00018901","RCS_SIZE":"LARGE","ECCENTRICITY":"0.00022020","PERIOD":"95.562","OBJECT_ID":"2020-019BL","EPOCH":"2022-07-20T19:21:44.837280","TLE_LINE1":"1 45418U 20019BL  22201.80676895  .00018901  00000-0  12682-2 0  9990","SITE":"AFETR","CLASSIFICATION_TYPE":"U","REV_AT_EPOCH":"12897","COUNTRY_CODE":"US","INCLINATION":"53.0005"},{"DECAY_DATE":null,"MEAN_MOTION":"15.06400958","MEAN_MOTION_DDOT":"0.0000000000000","TIME_SYSTEM":"UTC","REF_FRAME":"TEME","GP_ID":"208531400","TLE_LINE2":"2 45419  53.0563   7.5143 0001563  84.4930 275.6237 15.06400958129338","CENTER_NAME":"EARTH","APOAPSIS":"548.293","OBJECT_NAME":"STARLINK-1308","RA_OF_ASC_NODE":"7.5143","MEAN_ELEMENT_THEORY":"SGP4","ELEMENT_SET_NO":"999","MEAN_ANOMALY":"275.6237","FILE":"3518363","EPHEMERIS_TYPE":"0","NORAD_CAT_ID":"45419","OBJECT_ID":"2020-019BM","EPOCH":"2022-07-20T20:30:30.974688","PERIOD":"95.592","ECCENTRICITY":"0.00015630","REV_AT_EPOCH":"12933","TLE_LINE1":"1 45419U 20019BM  22201.85452517  .00001948  00000-0  14966-3 0  9990","CLASSIFICATION_TYPE":"U","SITE":"AFETR","INCLINATION":"53.0563","COUNTRY_CODE":"US","LAUNCH_DATE":"2020-03-18","SEMIMAJOR_AXIS":"6925.346","PERIAPSIS":"546.128","OBJECT_TYPE":"PAYLOAD","MEAN_MOTION_DOT":"0.00001948","BSTAR":"0.00014966000000","ARG_OF_PERICENTER":"84.4930","RCS_SIZE":"LARGE"},{"REF_FRAME":"TEME","TIME_SYSTEM":"UTC","MEAN_MOTION_DDOT":"0.0000000000000","MEAN_MOTION":"15.06405089","DECAY_DATE":null,"TLE_LINE2":"2 45531  53.0554 308.2448 0001237  85.6251 274.4880 15.06405089124931","CENTER_NAME":"EARTH","GP_ID":"208531161","RA_OF_ASC_NODE":"308.2448","OBJECT_NAME":"STARLINK-1329","APOAPSIS":"548.055","NORAD_CAT_ID":"45531","EPHEMERIS_TYPE":"0","FILE":"3518363","MEAN_ANOMALY":"274.4880","ELEMENT_SET_NO":"999","MEAN_ELEMENT_THEORY":"SGP4","CLASSIFICATION_TYPE":"U","SITE":"AFETR","TLE_LINE1":"1 45531U 20025A   22201.69049931  .00002744  00000-0  20301-3 0  9991","REV_AT_EPOCH":"12493","PERIOD":"95.592","ECCENTRICITY":"0.00012370","OBJECT_ID":"2020-025A","EPOCH":"2022-07-20T16:34:19.140384","COUNTRY_CODE":"US","INCLINATION":"53.0554","SEMIMAJOR_AXIS":"6925.333","LAUNCH_DATE":"2020-04-22","RCS_SIZE":"LARGE","ARG_OF_PERICENTER":"85.6251","PERIAPSIS":"546.341","OBJECT_TYPE":"PAYLOAD","BSTAR":"0.00020301000000","MEAN_MOTION_DOT":"0.00002744"},{"TLE_LINE2":"2 45532  53.0559 308.1950 0001268  82.6287 277.4846 15.06401351124937","CENTER_NAME":"EARTH","GP_ID":"208531912","MEAN_MOTION_DDOT":"0.0000000000000","REF_FRAME":"TEME","TIME_SYSTEM":"UTC","DECAY_DATE":null,"MEAN_MOTION":"15.06401351","FILE":"3518363","MEAN_ELEMENT_THEORY":"SGP4","ELEMENT_SET_NO":"999","MEAN_ANOMALY":"277.4846","NORAD_CAT_ID":"45532","EPHEMERIS_TYPE":"0","APOAPSIS":"548.088","RA_OF_ASC_NODE":"308.1950","OBJECT_NAME":"STARLINK-1338","COUNTRY_CODE":"US","INCLINATION":"53.0559","ECCENTRICITY":"0.00012680","PERIOD":"95.592","OBJECT_ID":"2020-025B","EPOCH":"2022-07-20T16:50:15.969408","TLE_LINE1":"1 45532U 20025B   22201.70157372  .00002851  00000-0  21021-3 0  9992","CLASSIFICATION_TYPE":"U","SITE":"AFETR","REV_AT_EPOCH":"12493","ARG_OF_PERICENTER":"82.6287","PERIAPSIS":"546.331","OBJECT_TYPE":"PAYLOAD","BSTAR":"0.00021021000000","MEAN_MOTION_DOT":"0.00002851","RCS_SIZE":"LARGE","LAUNCH_DATE":"2020-04-22","SEMIMAJOR_AXIS":"6925.344"},{"OBJECT_TYPE":"PAYLOAD","MEAN_MOTION_DOT":"0.00037870","PERIAPSIS":"382.305","BSTAR":"0.00043900000000","ARG_OF_PERICENTER":"242.5478","RCS_SIZE":"LARGE","LAUNCH_DATE":"2020-04-22","SEMIMAJOR_AXIS":"6761.594","INCLINATION":"53.0391","COUNTRY_CODE":"US","OBJECT_ID":"2020-025C","EPOCH":"2022-07-20T11:47:59.687520","PERIOD":"92.222","ECCENTRICITY":"0.00017060","REV_AT_EPOCH":"12574","TLE_LINE1":"1 45533U 20025C   22201.49166305  .00037870  00000-0  43900-3 0  9994","SITE":"AFETR","CLASSIFICATION_TYPE":"U","MEAN_ELEMENT_THEORY":"SGP4","ELEMENT_SET_NO":"999","MEAN_ANOMALY":"117.5362","FILE":"3518111","EPHEMERIS_TYPE":"0","NORAD_CAT_ID":"45533","APOAPSIS":"384.612","OBJECT_NAME":"STARLINK-1339","RA_OF_ASC_NODE":"249.3665","GP_ID":"208501666","TLE_LINE2":"2 45533  53.0391 249.3665 0001706 242.5478 117.5362 15.61453810125742","CENTER_NAME":"EARTH","MEAN_MOTION":"15.61453810","DECAY_DATE":null,"MEAN_MOTION_DDOT":"0.0000000000000","REF_FRAME":"TEME","TIME_SYSTEM":"UTC"}];
